[{"OBJECT_NAME":"CS1","OBJECT_ID":"2021-088B","EPOCH":"2026-03-09T18:02:30.253920","MEAN_MOTION":15.31848439,"ECCENTRICITY":0.00141292,"INCLINATION":97.3882,"RA_OF_ASC_NODE":132.1684,"ARG_OF_PERICENTER":78.0335,"MEAN_ANOMALY":282.249,"EPHEMERIS_TYPE":0,"CLASSIFICATION_TYPE":"U","NORAD_CAT_ID":49261,"ELEMENT_SET_NO":999,"REV_AT_EPOCH":24518,"BSTAR":0.00051175576,"MEAN_MOTION_DOT":0.00015722,"MEAN_MOTION_DDOT":0},{"OBJECT_NAME":"STARLINK-30963","OBJECT_ID":"2023-183H","EPOCH":"2026-03-09T22:00:01.999584","MEAN_MOTION":15.26727967,"ECCENTRICITY":0.00013998,"INCLINATION":43.0019,"RA_OF_ASC_NODE":40.0847,"ARG_OF_PERICENTER":255.6072,"MEAN_ANOMALY":43.2481,"EPHEMERIS_TYPE":0,"CLASSIFICATION_TYPE":"U","NORAD_CAT_ID":58444,"ELEMENT_SET_NO":999,"REV_AT_EPOCH":577,"BSTAR":0.0019649935,"MEAN_MOTION_DOT":0.00052808,"MEAN_MOTION_DDOT":0}]
